BEIDOU-2 IGSO-1 (C06)   
1 36828U 10036A   23315.04354976 -.00000035  00000+0  00000+0 0  9996
2 36828  54.2334 171.5541 0037728 190.9605 169.9893  1.00291317 48710
BEIDOU-2 G4 (C04)       
1 37210U 10057A   23314.86791663 -.00000090  00000+0  00000+0 0  9993
2 37210   1.3281  63.6762 0007732 174.0568 284.5166  1.00271648 47776
BEIDOU-2 IGSO-2 (C07)   
1 37256U 10068A   23315.16288083 -.00000211  00000+0  00000+0 0  9991
2 37256  49.2896 283.4849 0030664 214.6620  78.0781  1.00261966 47273
BEIDOU-2 IGSO-3 (C08)   
1 37384U 11013A   23314.25704373 -.00000196  00000+0  00000+0 0  9990
2 37384  61.0352  49.2488 0028147 180.5339  19.1959  1.00264927 46139
BEIDOU-2 IGSO-4 (C09)   
1 37763U 11038A   23314.36057951  .00000042  00000+0  00000+0 0  9992
2 37763  54.5065 174.1156 0111931 227.2232 231.7300  1.00260857 45121
BEIDOU-2 IGSO-5 (C10)   
1 37948U 11073A   23314.88938094 -.00000153  00000+0  00000+0 0  9993
2 37948  49.4162 283.1593 0093734 221.3453 319.0747  1.00257537 43611
BEIDOU-2 G5 (C05)       
1 38091U 12008A   23315.13423944  .00000079  00000+0  00000+0 0  9990
2 38091   1.8713  69.4335 0007228 192.0115 255.5932  1.00273021 42969
BEIDOU-2 M3 (C11)       
1 38250U 12018A   23314.31788980 -.00000059  00000+0  00000+0 0  9990
2 38250  56.4747 336.6509 0025385 260.1865  99.5799  1.86231303 78253
BEIDOU-2 M4 (C12)       
1 38251U 12018B   23314.24904599 -.00000059  00000+0  00000+0 0  9999
2 38251  56.3845 335.9413 0016294 261.9568  97.9108  1.86232037 78257
BEIDOU-2 M6 (C14)       
1 38775U 12050B   23313.42174326  .00000033  00000+0  00000+0 0  9993
2 38775  55.7432  94.5528 0010552 336.9368  23.0059  1.86231185 75952
BEIDOU-2 G6 (C02)       
1 38953U 12059A   23314.85277469 -.00000154  00000+0  00000+0 0  9995
2 38953   1.9978  81.6718 0007387 294.2260  64.9015  1.00273046 40388
BEIDOU-3S IGSO-1S (C31) 
1 40549U 15019A   23314.29337125 -.00000148  00000+0  00000+0 0  9995
2 40549  50.9820 306.7827 0036868 195.8370 104.0177  1.00297350 31545
BEIDOU-3S M2S (C57)     
1 40748U 15037A   23314.45116356 -.00000059  00000+0  00000+0 0  9996
2 40748  55.6230 334.4924 0012936 252.0598 107.8491  1.86233202 56432
BEIDOU-3S M1S (C58)     
1 40749U 15037B   23314.18440233 -.00000060  00000+0  00000+0 0  9993
2 40749  55.6263 334.4879 0005828 300.7966  59.1963  1.86233032 56434
BEIDOU-3S IGSO-2S (C56) 
1 40938U 15053A   23314.85495024 -.00000157  00000+0  00000+0 0  9990
2 40938  50.7078 269.9625 0046683 194.6154 349.2037  1.00267685 29823
BEIDOU-2 IGSO-6 (C13)   
1 41434U 16021A   23314.25540484 -.00000172  00000+0  00000+0 0  9990
2 41434  58.8509  47.5876 0049565 220.8674 329.0867  1.00269981 27952
BEIDOU-2 G7 (C03)       
1 41586U 16037A   23314.92341257 -.00000333  00000+0  00000+0 0  9995
2 41586   1.3855  65.2096 0008749 316.5871 111.0532  1.00272616 27271
BEIDOU-3 M1 (C19)       
1 43001U 17069A   23313.72495421  .00000032  00000+0  00000+0 0  9990
2 43001  55.8950  94.6104 0007496 292.7204  67.1895  1.86231571 40901
BEIDOU-3 M2 (C20)       
1 43002U 17069B   23313.66181356  .00000033  00000+0  00000+0 0  9994
2 43002  55.8940  94.6485 0005262 325.4206  34.5344  1.86231143 40898
BEIDOU-3 M7 (C27)       
1 43107U 18003A   23313.41240095 -.00000064  00000+0  00000+0 0  9993
2 43107  55.0802 335.2152 0002526  59.7095 300.3664  1.86232564 39649
BEIDOU-3 M8 (C28)       
1 43108U 18003B   23314.96190794 -.00000060  00000+0  00000+0 0  9991
2 43108  55.0724 335.1486 0004976 257.5909 102.4031  1.86230997 39686
BEIDOU-3 M4 (C22)       
1 43207U 18018A   23313.25603252  .00000034  00000+0  00000+0 0  9996
2 43207  55.8531  94.7228 0003544  15.3055 344.6960  1.86231518 39034
BEIDOU-3 M3 (C21)       
1 43208U 18018B   23314.39658586  .00000030  00000+0  00000+0 0  9999
2 43208  55.8533  94.6893 0005139 307.5452  52.3947  1.86231525 39051
BEIDOU-3 M9 (C29)       
1 43245U 18029A   23312.47140548 -.00000065  00000+0  00000+0 0  9992
2 43245  54.9725 332.9758 0002045 256.7061 103.3190  1.86232871 38171
BEIDOU-3 M10 (C30)      
1 43246U 18029B   23311.32744274 -.00000068  00000+0  00000+0 0  9995
2 43246  54.9707 333.0436 0003598 338.5198  21.5120  1.86232972 38133
BEIDOU-2 IGSO-7 (C16)   
1 43539U 18057A   23314.53452041 -.00000044  00000+0  00000+0 0  9999
2 43539  55.1179 171.2697 0063455 229.4371 314.3626  1.00263305 19621
BEIDOU-3 M5 (C23)       
1 43581U 18062A   23314.23242405  .00000015  00000+0  00000+0 0  9997
2 43581  54.1624 214.6330 0003097 308.7124  51.3189  1.86232041 35943
BEIDOU-3 M6 (C24)       
1 43582U 18062B   23314.09909463  .00000013  00000+0  00000+0 0  9994
2 43582  54.1622 214.6271 0006420  22.1399 337.9459  1.86229965 35944
BEIDOU-3 M12 (C26)      
1 43602U 18067A   23314.57174813  .00000023  00000+0  00000+0 0  9999
2 43602  54.2504 213.2721 0007870  22.9281 337.1707  1.86231564 35430
BEIDOU-3 M11 (C25)      
1 43603U 18067B   23314.16863011  .00000017  00000+0  00000+0 0  9993
2 43603  54.2475 213.2513 0004695  15.3929 344.6827  1.86231521 35455
BEIDOU-3 M13 (C32)      
1 43622U 18072A   23314.12765575  .00000030  00000+0  00000+0 0  9997
2 43622  55.8236  94.2315 0004401 283.1920  76.7462  1.86231359 34968
BEIDOU-3 M14 (C33)      
1 43623U 18072B   23313.99311080  .00000030  00000+0  00000+0 0  9990
2 43623  55.8252  94.2288 0002029 331.2292  28.7474  1.86231348 34954
BEIDOU-3 M16 (C35)      
1 43647U 18078A   23314.69391753 -.00000059  00000+0  00000+0 0  9997
2 43647  54.8674 333.0160 0006388 358.9573   1.0888  1.86232399 34477
BEIDOU-3 M15 (C34)      
1 43648U 18078B   23314.28603962 -.00000060  00000+0  00000+0 0  9993
2 43648  54.8635 333.0337 0003335 358.0926   1.9540  1.86232297 34485
BEIDOU-3 G1 (C59)       
1 43683U 18085A   23314.64896748 -.00000257  00000+0  00000+0 0  9994
2 43683   1.6644 120.0198 0001563   6.9153 296.2042  1.00266339 18539
BEIDOU-3 M17 (C36)      
1 43706U 18093A   23313.89686679  .00000011  00000+0  00000+0 0  9992
2 43706  54.2452 214.5666 0008162 290.0486  69.9208  1.86232133 33829
BEIDOU-3 M18 (C37)      
1 43707U 18093B   23313.76359820  .00000009  00000+0  00000+0 0  9991
2 43707  54.2459 214.5628 0007313 322.7282  37.2776  1.86229978 33831
BEIDOU-3 IGSO-1 (C38)   
1 44204U 19023A   23313.58973750 -.00000226  00000+0  00000+0 0  9994
2 44204  57.3179  47.5485 0024448 199.6446 132.4851  1.00263023 16808
BEIDOU-2 G8 (C01)       
1 44231U 19027A   23314.86478382 -.00000226  00000+0  00000+0 0  9991
2 44231   1.4079  71.2916 0004735 163.9387 270.4491  1.00270125 16562
BEIDOU-3 IGSO-2 (C39)   
1 44337U 19035A   23314.50120292 -.00000042  00000+0  00000+0 0  9998
2 44337  55.1536 167.2004 0032855 194.2558 345.8064  1.00253964 16170
BEIDOU-3 M24 (C46)      
1 44542U 19061A   23314.37172311  .00000018  00000+0  00000+0 0  9991
2 44542  54.4725 214.7933 0008716 358.6509   1.4062  1.86231604 28100
BEIDOU-3 M23 (C45)      
1 44543U 19061B   23314.18962397  .00000015  00000+0  00000+0 0  9999
2 44543  54.4709 214.7688 0005678 350.6343 159.3041  1.86231986 28105
BEIDOU-3 IGSO-3 (C40)   
1 44709U 19073A   23314.34082318 -.00000186  00000+0  00000+0 0  9990
2 44709  56.4260 291.0456 0034433 190.7942 169.0786  1.00261625 14932
BEIDOU-3 M22 (C44)      
1 44793U 19078A   23314.21708865 -.00000061  00000+0  00000+0 0  9998
2 44793  54.7160 332.9914 0005251   4.5666 355.4860  1.86232263 26959
BEIDOU-3 M21 (C43)      
1 44794U 19078B   23314.34748784 -.00000061  00000+0  00000+0 0  9997
2 44794  54.6897 332.9677 0003473 348.5484  11.4912  1.86232721 26962
BEIDOU-3 M19 (C41)      
1 44864U 19090A   23314.05377966  .00000030  00000+0  00000+0 0  9992
2 44864  55.7578  94.4174 0015784 272.3584  84.3771  1.86231812 26538
BEIDOU-3 M20 (C42)      
1 44865U 19090B   23313.92018803  .00000031  00000+0  00000+0 0  9991
2 44865  55.7597  94.4548 0013309 286.6337  70.3110  1.86231785 26519
BEIDOU-3 G2 (C60)       
1 45344U 20017A   23314.85199147 -.00000121  00000+0  00000+0 0  9990
2 45344   2.0953  19.6862 0003191 208.6560 208.1732  1.00271523 13743
BEIDOU-3 G3 (C61)       
1 45807U 20040A   23314.92341257 -.00000334  00000+0  00000+0 0  9995
2 45807   0.5820 359.0400 0009811 310.0366 183.7253  1.00267340 12555
BEIDOU-3 G4             
1 56564U 23066A   23314.86791663 -.00000094  00000+0  00000+0 0  9994
2 56564   2.6765 288.5634 0005046 230.6308   3.0136  1.00271064  1877
